NORAD_CAT_ID,OBJECT_NAME,OBJECT_TYPE,EPOCH,MEAN_MOTION,ECCENTRICITY,INCLINATION,RA_OF_ASC_NODE,ARG_OF_PERICENTER,MEAN_ANOMALY,BSTAR,MEAN_MOTION_DOT,MEAN_MOTION_DDOT,TLE_LINE0,TLE_LINE1,TLE_LINE2,SEMIMAJOR_AXIS,PERIOD,APOGEE,PERIGEE,DECAYED
52473.0,STARLINK-3879,PAYLOAD,2024-05-28 04:03:30,15.08842116,0.0001409,53.2185,99.4202,91.7102,268.4052,7.158e-05,8.52e-06,0.0,0 STARLINK-3879,1 52473U 22049Y   24149.16910385  .00000852  00000-0  71580-4 0  9991,2 52473  53.2185  99.4202 0001409  91.7102 268.4052 15.08842116114208,6917.874,95.437,540.714,538.764,0.0
52473.0,STARLINK-3879,PAYLOAD,2024-05-28 05:38:53,15.08842758,0.0001431,53.2187,99.1228,94.4795,265.6361,7.7258e-05,9.42e-06,0.0,0 STARLINK-3879,1 52473U 22049Y   24149.23534310  .00000942  00000-0  77258-4 0  9997,2 52473  53.2187  99.1228 0001431  94.4795 265.6361 15.08842758114055,6917.872,95.437,540.727,538.747,0.0
52473.0,STARLINK-3879,PAYLOAD,2024-05-29 03:54:17,15.08838164,0.0001438,53.2189,94.9608,94.7594,265.3562,4.1595e-05,3.74e-06,0.0,0 STARLINK-3879,1 52473U 22049Y   24150.16270799  .00000374  00000-0  41595-4 0  9993,2 52473  53.2189  94.9608 0001438  94.7594 265.3562 15.08838164114358,6917.886,95.438,540.746,538.756,0.0
52473.0,STARLINK-3879,PAYLOAD,2024-05-29 05:29:41,15.08838534,0.0001438,53.2189,94.6621,92.858,267.2577,4.3754e-05,4.08e-06,0.0,0 STARLINK-3879,1 52473U 22049Y   24150.22894767  .00000408  00000-0  43754-4 0  9994,2 52473  53.2189  94.6621 0001438  92.8580 267.2577 15.08838534114206,6917.885,95.438,540.745,538.755,0.0
52473.0,STARLINK-3879,PAYLOAD,2024-05-30 05:20:27,15.08843653,0.0001234,53.2186,90.2013,94.8055,265.3078,3.8687e-05,3.28e-06,0.0,0 STARLINK-3879,1 52473U 22049Y   24151.22254556  .00000328  00000-0  38687-4 0  9991,2 52473  53.2186  90.2013 0001234  94.8055 265.3078 15.08843653114510,6917.869,95.437,540.588,538.881,0.0
52473.0,STARLINK-3879,PAYLOAD,2024-05-30 05:20:28,15.08831303,0.0001422,53.2186,90.2012,94.6487,265.4668,0.00020645,2.998e-05,0.0,0 STARLINK-3879,1 52473U 22049Y   24151.22254781  .00002998  00000-0  20645-3 0  9990,2 52473  53.2186  90.2012 0001422  94.6487 265.4668 15.08831303114352,6917.907,95.438,540.756,538.788,0.0
52473.0,STARLINK-3879,PAYLOAD,2024-05-31 05:11:14,15.08851238,0.0001548,53.2192,85.7408,82.7478,277.369,0.00013078,1.795e-05,0.0,0 STARLINK-3879,1 52473U 22049Y   24152.21613620  .00001795  00000-0  13078-3 0  9997,2 52473  53.2192  85.7408 0001548  82.7478 277.3690 15.08851238114664,6917.846,95.437,540.782,538.64,0.0
52473.0,STARLINK-3879,PAYLOAD,2024-05-31 22:40:29,15.08836943,0.0001195,53.2185,82.4745,85.1648,274.948,2.2496e-05,7e-07,0.0,0 STARLINK-3879,1 52473U 22049Y   24152.94478702  .00000070  00000-0  22496-4 0  9997,2 52473  53.2185  82.4745 0001195  85.1648 274.9480 15.08836943114619,6917.89,95.438,540.581,538.928,0.0
52473.0,STARLINK-3879,PAYLOAD,2024-06-01 05:02:01,15.08845663,0.0001215,53.2187,81.282,100.9748,259.138,1.8067e-05,0.0,0.0,0 STARLINK-3879,1 52473U 22049Y   24153.20974075 -.00000000  00000-0  18067-4 0  9994,2 52473  53.2187  81.2820 0001215 100.9748 259.1380 15.08845663114817,6917.863,95.437,540.569,538.888,0.0
52473.0,STARLINK-3879,PAYLOAD,2024-06-01 19:20:30,15.08838062,0.0001355,53.2191,78.6045,104.8619,255.2523,-6.785e-05,-1.368e-05,0.0,0 STARLINK-3879,1 52473U 22049Y   24153.80590854 -.00001368  00000-0 -67850-4 0  9992,2 52473  53.2191  78.6045 0001355 104.8619 255.2523 15.08838062114907,6917.886,95.438,540.689,538.814,0.0
52473.0,STARLINK-3879,PAYLOAD,2024-06-02 04:52:49,15.08842643,0.0001311,53.2193,76.8224,101.9477,258.1662,-6.9605e-05,-1.396e-05,0.0,0 STARLINK-3879,1 52473U 22049Y   24154.20334583 -.00001396  00000-0 -69605-4 0  9993,2 52473  53.2193  76.8224 0001311 101.9477 258.1662 15.08842643114805,6917.872,95.437,540.644,538.83,0.0
52473.0,STARLINK-3879,PAYLOAD,2024-06-03 04:43:36,15.08837204,0.0001025,53.2187,72.3638,96.7797,263.3312,3.0311e-06,-2.4e-06,0.0,0 STARLINK-3879,1 52473U 22049Y   24155.19695209 -.00000240  00000-0  30311-5 0  9996,2 52473  53.2187  72.3638 0001025  96.7797 263.3312 15.08837204115118,6917.889,95.438,540.463,539.045,0.0
52473.0,STARLINK-3879,PAYLOAD,2024-06-03 11:05:08,15.0884214,0.0001039,53.219,71.1747,94.878,265.233,2.0544e-05,3.9e-07,0.0,0 STARLINK-3879,1 52473U 22049Y   24155.46190857  .00000039  00000-0  20544-4 0  9996,2 52473  53.2190  71.1747 0001039  94.8780 265.2330 15.08842140114997,6917.874,95.437,540.458,539.02,0.0
52473.0,STARLINK-3879,PAYLOAD,2024-06-03 19:02:04,15.08837313,0.0001172,53.2189,69.6879,100.0003,260.1122,9.5384e-05,1.23e-05,0.0,0 STARLINK-3879,1 52473U 22049Y   24155.79311185  .00001230  00000-0  95384-4 0  9999,2 52473  53.2189  69.6879 0001172 100.0003 260.1122 15.08837313115045,6917.889,95.438,540.564,538.943,0.0
52473.0,STARLINK-3879,PAYLOAD,2024-06-04 01:23:36,15.08849006,0.0001545,53.2184,68.4957,85.5772,274.5397,0.00016563,2.35e-05,0.0,0 STARLINK-3879,1 52473U 22049Y   24156.05806318  .00002350  00000-0  16563-3 0  9991,2 52473  53.2184  68.4957 0001545  85.5772 274.5397 15.08849006115245,6917.853,95.437,540.787,538.649,0.0
52473.0,STARLINK-3879,PAYLOAD,2024-06-04 10:55:55,15.08850122,7.37e-05,53.2189,66.7132,79.4639,280.6436,0.00015293,2.148e-05,0.0,0 STARLINK-3879,1 52473U 22049Y   24156.45550040  .00002148  00000-0  15293-3 0  9997,2 52473  53.2189  66.7132 0000737  79.4639 280.6436 15.08850122115144,6917.849,95.437,540.224,539.205,0.0
52473.0,STARLINK-3879,PAYLOAD,2024-06-05 02:49:47,15.08841624,0.0001258,53.2196,63.7405,76.8385,283.2747,4.6033e-05,4.45e-06,0.0,0 STARLINK-3879,1 52473U 22049Y   24157.11791274  .00000445  00000-0  46033-4 0  9992,2 52473  53.2196  63.7405 0001258  76.8385 283.2747 15.08841624115400,6917.875,95.437,540.611,538.87,0.0
52473.0,STARLINK-3879,PAYLOAD,2024-06-05 10:46:43,15.08836796,0.0001119,53.2194,62.254,90.7505,269.3615,7.3256e-07,-2.76e-06,0.0,0 STARLINK-3879,1 52473U 22049Y   24157.44911668 -.00000276  00000-0  73256-6 0  9991,2 52473  53.2194  62.2540 0001119  90.7505 269.3615 15.08836796115297,6917.89,95.438,540.529,538.981,0.0
52473.0,STARLINK-3879,PAYLOAD,2024-06-06 10:37:30,15.08838414,0.0001434,53.2205,57.792,82.9205,277.195,3.2295e-05,2.26e-06,0.0,0 STARLINK-3879,1 52473U 22049Y   24158.44271661  .00000226  00000-0  32295-4 0  9994,2 52473  53.2205  57.7920 0001434  82.9205 277.1950 15.08838414115446,6917.885,95.438,540.742,538.758,0.0
52473.0,STARLINK-3879,PAYLOAD,2024-06-07 23:11:23,15.08835599,9.93e-05,53.2175,50.9545,82.7751,277.3354,6.6117e-05,7.65e-06,0.0,0 STARLINK-3879,1 52473U 22049Y   24159.96624013  .00000765  00000-0  66117-4 0  9993,2 52473  53.2175  50.9545 0000993  82.7751 277.3354 15.08835599115679,6917.894,95.438,540.446,539.072,0.0
52473.0,STARLINK-3879,PAYLOAD,2024-06-08 10:19:04,15.08845158,0.0001172,53.2178,48.8731,83.3337,276.7788,0.00012393,1.685e-05,0.0,0 STARLINK-3879,1 52473U 22049Y   24160.42991280  .00001685  00000-0  12393-3 0  9997,2 52473  53.2178  48.8731 0001172  83.3337 276.7788 15.08845158115746,6917.865,95.437,540.54,538.919,0.0
52473.0,STARLINK-3879,PAYLOAD,2024-06-08 23:02:09,15.08834941,0.0001037,53.2197,46.4909,107.4352,252.6753,0.00018836,2.711e-05,0.0,0 STARLINK-3879,1 52473U 22049Y   24160.95983769  .00002711  00000-0  18836-3 0  9997,2 52473  53.2197  46.4909 0001037 107.4352 252.6753 15.08834941115825,6917.896,95.438,540.478,539.043,0.0
52473.0,STARLINK-3879,PAYLOAD,2024-06-09 02:12:55,15.08848022,0.0001028,53.2193,45.8978,107.6096,252.5008,1.0442e-05,-1.22e-06,0.0,0 STARLINK-3879,1 52473U 22049Y   24161.09231297 -.00000122  00000-0  10442-4 0  9996,2 52473  53.2193  45.8978 0001028 107.6096 252.5008 15.08848022115846,6917.856,95.437,540.432,539.01,0.0
52473.0,STARLINK-3879,PAYLOAD,2024-06-09 21:17:34,15.08836372,0.0001269,53.2191,42.3296,93.5861,266.5276,1.7521e-05,-9e-08,0.0,0 STARLINK-3879,1 52473U 22049Y   24161.88720256 -.00000009  00000-0  17521-4 0  9990,2 52473  53.2191  42.3296 0001269  93.5861 266.5276 15.08836372116128,6917.891,95.438,540.634,538.879,0.0
52473.0,STARLINK-3879,PAYLOAD,2024-06-09 22:52:57,15.08835723,0.0001035,53.2193,42.0333,84.5427,275.5683,1.3921e-05,-6.6e-07,0.0,0 STARLINK-3879,1 52473U 22049Y   24161.95344320 -.00000066  00000-0  13921-4 0  9995,2 52473  53.2193  42.0333 0001035  84.5427 275.5683 15.08835723115971,6917.893,95.438,540.474,539.042,0.0
52473.0,STARLINK-3879,PAYLOAD,2024-06-10 08:25:16,15.08838247,0.0001283,53.2181,40.2478,86.9758,273.1381,8.8519e-05,1.121e-05,0.0,0 STARLINK-3879,1 52473U 22049Y   24162.35087995  .00001121  00000-0  88519-4 0  9999,2 52473  53.2181  40.2478 0001283  86.9758 273.1381 15.08838247116037,6917.886,95.438,540.638,538.863,0.0
52473.0,STARLINK-3879,PAYLOAD,2024-06-10 21:08:21,15.08836586,0.0001473,53.2184,37.8701,94.6042,265.5119,-9.0339e-06,-4.32e-06,0.0,0 STARLINK-3879,1 52473U 22049Y   24162.88080525 -.00000432  00000-0 -90339-5 0  9999,2 52473  53.2184  37.8701 0001473  94.6042 265.5119 15.08836586116111,6917.891,95.438,540.775,538.737,0.0
52473.0,STARLINK-3879,PAYLOAD,2024-06-11 01:54:30,15.08815888,0.0001477,53.2189,36.9763,88.2937,271.8224,0.00037867,5.74e-05,0.0,0 STARLINK-3879,1 52473U 22049Y   24163.07952531  .00005740  00000-0  37867-3 0  9996,2 52473  53.2189  36.9763 0001477  88.2937 271.8224 15.08815888116300,6917.954,95.439,540.841,538.797,0.0
52473.0,STARLINK-3879,PAYLOAD,2024-06-11 08:16:03,15.08820398,0.0001472,53.2189,35.7872,86.7957,273.3203,0.000331,4.981e-05,0.0,0 STARLINK-3879,1 52473U 22049Y   24163.34448732  .00004981  00000-0  33100-3 0  9991,2 52473  53.2189  35.7872 0001472  86.7957 273.3203 15.08820398116180,6917.94,95.439,540.824,538.787,0.0
52473.0,STARLINK-3879,PAYLOAD,2024-06-11 20:59:08,15.08829675,0.0001201,53.2187,33.4076,93.4356,266.6773,0.00024892,3.675e-05,0.0,0 STARLINK-3879,1 52473U 22049Y   24163.87440109  .00003675  00000-0  24892-3 0  9996,2 52473  53.2187  33.4076 0001201  93.4356 266.6773 15.08829675116428,6917.912,95.438,540.608,538.946,0.0
